[Satellite]
VERSION=1.1
NAME=MOLNIYA 1-44
NICKNAME=MOLNIYA 1-44
TLE1=1 11474U 79070A   15054.82087922  .00136973  14359-5  91816-3 0  9997
TLE2=2 11474  62.1010 287.5109 2516156 225.6301 290.8544 10.53114536467565
